UMBRA-07                
1 58297U 23174AT  26068.71829358  .00012685  00000+0  84614-3 0  9990
2 58297  97.3902 128.3323 0004131  75.5473 284.6213 15.07174057128425
STARLINK-35005          
1 65456U 25194Y   26068.83246977  .00003490  00000+0  24593-3 0  9996
2 65456  97.6018 284.6044 0001315  80.5935 279.5440 15.05651135 29674
