[{"OBJECT_NAME":"UMBRA-07","OBJECT_ID":"2023-174AT","EPOCH":"2026-03-09T17:14:20.565312","MEAN_MOTION":15.07174057,"ECCENTRICITY":0.00041314,"INCLINATION":97.3902,"RA_OF_ASC_NODE":128.3323,"ARG_OF_PERICENTER":75.5473,"MEAN_ANOMALY":284.6213,"EPHEMERIS_TYPE":0,"CLASSIFICATION_TYPE":"U","NORAD_CAT_ID":58297,"ELEMENT_SET_NO":999,"REV_AT_EPOCH":12842,"BSTAR":0.0008461425,"MEAN_MOTION_DOT":0.00012685,"MEAN_MOTION_DDOT":0},{"OBJECT_NAME":"STARLINK-35005","OBJECT_ID":"2025-194Y","EPOCH":"2026-03-09T19:58:45.388128","MEAN_MOTION":15.05651135,"ECCENTRICITY":0.00013149,"INCLINATION":97.6018,"RA_OF_ASC_NODE":284.6044,"ARG_OF_PERICENTER":80.5935,"MEAN_ANOMALY":279.544,"EPHEMERIS_TYPE":0,"CLASSIFICATION_TYPE":"U","NORAD_CAT_ID":65456,"ELEMENT_SET_NO":999,"REV_AT_EPOCH":2967,"BSTAR":0.0002459349,"MEAN_MOTION_DOT":3.49e-5,"MEAN_MOTION_DDOT":0}]
